[{"OBJECT_NAME":"SITRO-AIS 5 (KATYS)","OBJECT_ID":"2023-091L","EPOCH":"2026-03-09T22:36:44.932608","MEAN_MOTION":15.27079182,"ECCENTRICITY":0.00133776,"INCLINATION":97.5176,"RA_OF_ASC_NODE":132.0172,"ARG_OF_PERICENTER":94.5677,"MEAN_ANOMALY":265.709,"EPHEMERIS_TYPE":0,"CLASSIFICATION_TYPE":"U","NORAD_CAT_ID":57176,"ELEMENT_SET_NO":999,"REV_AT_EPOCH":14918,"BSTAR":0.00057530772,"MEAN_MOTION_DOT":0.00015262,"MEAN_MOTION_DDOT":0},{"OBJECT_NAME":"STARLINK-31656","OBJECT_ID":"2024-132J","EPOCH":"2026-03-09T22:50:01.918176","MEAN_MOTION":15.30171016,"ECCENTRICITY":0.00011503,"INCLINATION":53.1601,"RA_OF_ASC_NODE":50.9923,"ARG_OF_PERICENTER":79.4511,"MEAN_ANOMALY":280.6619,"EPHEMERIS_TYPE":0,"CLASSIFICATION_TYPE":"U","NORAD_CAT_ID":60286,"ELEMENT_SET_NO":999,"REV_AT_EPOCH":9160,"BSTAR":-5.4772808e-5,"MEAN_MOTION_DOT":-1.979e-5,"MEAN_MOTION_DDOT":0}]
